{
  "type": "FeatureCollection",
  "features": [
    {
      "type": "Feature",
      "properties": {
        "norad_id": 22490,
        "name": "SCD 1",
        "group": "resource",
        "lat": -11.716669937933036,
        "lon": -64.34646600729616,
        "alt_km": 733.4826161717647,
        "timestamp": "2025-12-05T16:54:14.326193+00:00",
        "meta_object_name": "SCD 1",
        "meta_object_id": "1993-009B",
        "meta_epoch": "2025-12-05T07:12:13.264992",
        "meta_mean_motion": 14.45990531,
        "meta_eccentricity": 0.00417679,
        "meta_inclination": 24.9708,
        "meta_ra_of_asc_node": 324.6115,
        "meta_arg_of_pericenter": 245.8558,
        "meta_mean_anomaly": 136.6908,
        "meta_ephemeris_type": 0,
        "meta_classification_type": "U",
        "meta_norad_cat_id": 22490,
        "meta_element_set_no": 999,
        "meta_rev_at_epoch": 73302,
        "meta_bstar": 0.00017062415,
        "meta_mean_motion_dot": 8.1e-06,
        "meta_mean_motion_ddot": 0,
        "tle_line1": "1 22490U 93009B   25339.30015353  .00000810  00000+0  17062-3 0  9997",
        "tle_line2": "2 22490  24.9708 324.6115 0041767 245.8558 136.6908 14.45990531733022"
      },
      "geometry": {
        "type": "Point",
        "coordinates": [
          -64.34646600729616,
          -11.716669937933036
        ]
      }
    },
    {
      "type": "Feature",
      "properties": {
        "norad_id": 25397,
        "name": "TECHSAT 1B (GO-32)",
        "group": "resource",
        "lat": 64.86081611253593,
        "lon": 162.47259901029022,
        "alt_km": 803.124366447667,
        "timestamp": "2025-12-05T16:54:14.326221+00:00",
        "meta_object_name": "TECHSAT 1B (GO-32)",
        "meta_object_id": "1998-043D",
        "meta_epoch": "2025-12-04T13:23:55.365216",
        "meta_mean_motion": 14.24373417,
        "meta_eccentricity": 0.0002213,
        "meta_inclination": 98.9913,
        "meta_ra_of_asc_node": 321.5819,
        "meta_arg_of_pericenter": 70.8607,
        "meta_mean_anomaly": 289.281,
        "meta_ephemeris_type": 0,
        "meta_classification_type": "U",
        "meta_norad_cat_id": 25397,
        "meta_element_set_no": 999,
        "meta_rev_at_epoch": 42362,
        "meta_bstar": 9.8436e-05,
        "meta_mean_motion_dot": 1.81e-06,
        "meta_mean_motion_ddot": 0,
        "tle_line1": "1 25397U 98043D   25338.55827969  .00000181  00000+0  98436-4 0  9995",
        "tle_line2": "2 25397  98.9913 321.5819 0002213  70.8607 289.2810 14.24373417423625"
      },
      "geometry": {
        "type": "Point",
        "coordinates": [
          162.47259901029022,
          64.86081611253593
        ]
      }
    },
    {
      "type": "Feature",
      "properties": {
        "norad_id": 25504,
        "name": "SCD 2",
        "group": "resource",
        "lat": 7.340112931027601,
        "lon": -158.66848845430164,
        "alt_km": 746.6456423467935,
        "timestamp": "2025-12-05T16:54:14.326232+00:00",
        "meta_object_name": "SCD 2",
        "meta_object_id": "1998-060A",
        "meta_epoch": "2025-12-05T07:37:24.133152",
        "meta_mean_motion": 14.45416872,
        "meta_eccentricity": 0.00166278,
        "meta_inclination": 24.9936,
        "meta_ra_of_asc_node": 187.6629,
        "meta_arg_of_pericenter": 234.163,
        "meta_mean_anomaly": 287.1333,
        "meta_ephemeris_type": 0,
        "meta_classification_type": "U",
        "meta_norad_cat_id": 25504,
        "meta_element_set_no": 999,
        "meta_rev_at_epoch": 43224,
        "meta_bstar": 0.00012907093,
        "meta_mean_motion_dot": 6.45e-06,
        "meta_mean_motion_ddot": 0,
        "tle_line1": "1 25504U 98060A   25339.31764043  .00000645  00000+0  12907-3 0  9995",
        "tle_line2": "2 25504  24.9936 187.6629 0016627 234.1630 287.1333 14.45416872432245"
      },
      "geometry": {
        "type": "Point",
        "coordinates": [
          -158.66848845430164,
          7.340112931027601
        ]
      }
    },
    {
      "type": "Feature",
      "properties": {
        "norad_id": 25757,
        "name": "DLR-TUBSAT",
        "group": "resource",
        "lat": -15.503856563692576,
        "lon": -33.57711792628066,
        "alt_km": 728.7778590001608,
        "timestamp": "2025-12-05T16:54:14.326242+00:00",
        "meta_object_name": "DLR-TUBSAT",
        "meta_object_id": "1999-029B",
        "meta_epoch": "2025-12-04T22:47:17.456640",
        "meta_mean_motion": 14.52353065,
        "meta_eccentricity": 0.0013476,
        "meta_inclination": 98.6556,
        "meta_ra_of_asc_node": 323.2231,
        "meta_arg_of_pericenter": 217.2961,
        "meta_mean_anomaly": 142.7299,
        "meta_ephemeris_type": 0,
        "meta_classification_type": "U",
        "meta_norad_cat_id": 25757,
        "meta_element_set_no": 999,
        "meta_rev_at_epoch": 40505,
        "meta_bstar": 8.4027e-05,
        "meta_mean_motion_dot": 2.94e-06,
        "meta_mean_motion_ddot": 0,
        "tle_line1": "1 25757U 99029B   25338.94950760  .00000294  00000+0  84027-4 0  9995",
        "tle_line2": "2 25757  98.6556 323.2231 0013476 217.2961 142.7299 14.52353065405054"
      },
      "geometry": {
        "type": "Point",
        "coordinates": [
          -33.57711792628066,
          -15.503856563692576
        ]
      }
    },
    {
      "type": "Feature",
      "properties": {
        "norad_id": 25994,
        "name": "TERRA",
        "group": "resource",
        "lat": -11.391716020123885,
        "lon": -149.97209308145068,
        "alt_km": 694.0563860965167,
        "timestamp": "2025-12-05T16:54:14.326253+00:00",
        "meta_object_name": "TERRA",
        "meta_object_id": "1999-068A",
        "meta_epoch": "2025-12-05T06:27:52.145856",
        "meta_mean_motion": 14.60939476,
        "meta_eccentricity": 0.00034645,
        "meta_inclination": 97.9759,
        "meta_ra_of_asc_node": 31.2276,
        "meta_arg_of_pericenter": 112.9038,
        "meta_mean_anomaly": 312.087,
        "meta_ephemeris_type": 0,
        "meta_classification_type": "U",
        "meta_norad_cat_id": 25994,
        "meta_element_set_no": 999,
        "meta_rev_at_epoch": 38129,
        "meta_bstar": 0.00021596868,
        "meta_mean_motion_dot": 1.013e-05,
        "meta_mean_motion_ddot": 0,
        "tle_line1": "1 25994U 99068A   25339.26935354  .00001013  00000+0  21597-3 0  9991",
        "tle_line2": "2 25994  97.9759  31.2276 0003464 112.9038 312.0870 14.60939476381292"
      },
      "geometry": {
        "type": "Point",
        "coordinates": [
          -149.97209308145068,
          -11.391716020123885
        ]
      }
    },
    {
      "type": "Feature",
      "properties": {
        "norad_id": 27004,
        "name": "MAROC-TUBSAT",
        "group": "resource",
        "lat": -46.693140375159054,
        "lon": 158.5816329805421,
        "alt_km": 993.5890621671651,
        "timestamp": "2025-12-05T16:54:14.326263+00:00",
        "meta_object_name": "MAROC-TUBSAT",
        "meta_object_id": "2001-056D",
        "meta_epoch": "2025-12-05T01:54:00.023616",
        "meta_mean_motion": 13.70252339,
        "meta_eccentricity": 0.00190961,
        "meta_inclination": 99.7911,
        "meta_ra_of_asc_node": 147.39,
        "meta_arg_of_pericenter": 280.5585,
        "meta_mean_anomaly": 189.5201,
        "meta_ephemeris_type": 0,
        "meta_classification_type": "U",
        "meta_norad_cat_id": 27004,
        "meta_element_set_no": 999,
        "meta_rev_at_epoch": 19960,
        "meta_bstar": 3.6662742e-05,
        "meta_mean_motion_dot": -1.4e-07,
        "meta_mean_motion_ddot": 0,
        "tle_line1": "1 27004U 01056D   25339.07916694 -.00000014  00000+0  36663-4 0  9992",
        "tle_line2": "2 27004  99.7911 147.3900 0019096 280.5585 189.5201 13.70252339199609"
      },
      "geometry": {
        "type": "Point",
        "coordinates": [
          158.5816329805421,
          -46.693140375159054
        ]
      }
    },
    {
      "type": "Feature",
      "properties": {
        "norad_id": 27424,
        "name": "AQUA",
        "group": "resource",
        "lat": 43.2699634742681,
        "lon": -67.5290204802295,
        "alt_km": 683.5716243919196,
        "timestamp": "2025-12-05T16:54:14.326274+00:00",
        "meta_object_name": "AQUA",
        "meta_object_id": "2002-022A",
        "meta_epoch": "2025-12-05T07:20:21.043104",
        "meta_mean_motion": 14.6178136,
        "meta_eccentricity": 8.47e-05,
        "meta_inclination": 98.4025,
        "meta_ra_of_asc_node": 300.0643,
        "meta_arg_of_pericenter": 111.3897,
        "meta_mean_anomaly": 356.549,
        "meta_ephemeris_type": 0,
        "meta_classification_type": "U",
        "meta_norad_cat_id": 27424,
        "meta_element_set_no": 999,
        "meta_rev_at_epoch": 25494,
        "meta_bstar": 0.00049689186,
        "meta_mean_motion_dot": 2.431e-05,
        "meta_mean_motion_ddot": 0,
        "tle_line1": "1 27424U 02022A   25339.30579911  .00002431  00000+0  49689-3 0  9990",
        "tle_line2": "2 27424  98.4025 300.0643 0000847 111.3897 356.5490 14.61781360254947"
      },
      "geometry": {
        "type": "Point",
        "coordinates": [
          -67.5290204802295,
          43.2699634742681
        ]
      }
    }
  ]
}